[{"OBJECT_NAME":"YAOGAN-30 11A","OBJECT_ID":"2021-065A","EPOCH":"2026-03-09T17:03:27.605952","MEAN_MOTION":15.0211069,"ECCENTRICITY":0.00046738,"INCLINATION":34.9929,"RA_OF_ASC_NODE":159.1721,"ARG_OF_PERICENTER":355.4238,"MEAN_ANOMALY":4.6427,"EPHEMERIS_TYPE":0,"CLASSIFICATION_TYPE":"U","NORAD_CAT_ID":49026,"ELEMENT_SET_NO":999,"REV_AT_EPOCH":25367,"BSTAR":0.00035664483,"MEAN_MOTION_DOT":4.757e-5,"MEAN_MOTION_DDOT":0},{"OBJECT_NAME":"STARLINK-4389","OBJECT_ID":"2022-099L","EPOCH":"2026-03-09T21:51:46.754784","MEAN_MOTION":15.01257351,"ECCENTRICITY":0.00021959,"INCLINATION":97.601,"RA_OF_ASC_NODE":190.4244,"ARG_OF_PERICENTER":219.9903,"MEAN_ANOMALY":140.116,"EPHEMERIS_TYPE":0,"CLASSIFICATION_TYPE":"U","NORAD_CAT_ID":53475,"ELEMENT_SET_NO":999,"REV_AT_EPOCH":19671,"BSTAR":4.4061171e-5,"MEAN_MOTION_DOT":5.08e-6,"MEAN_MOTION_DDOT":0}]
